OBJECT_NAME,OBJECT_ID,EPOCH,MEAN_MOTION,ECCENTRICITY,INCLINATION,RA_OF_ASC_NODE,ARG_OF_PERICENTER,MEAN_ANOMALY,EPHEMERIS_TYPE,CLASSIFICATION_TYPE,NORAD_CAT_ID,ELEMENT_SET_NO,REV_AT_EPOCH,BSTAR,MEAN_MOTION_DOT,MEAN_MOTION_DDOT
STARLINK-32614,2024-249V,2026-06-11T15:51:20.384640,15.27603943,.0001823,42.9937,151.2969,273.6371,86.4272,0,U,62428,999,8209,.78363E-3,.2138E-3,0
STARLINK-32418,2024-249W,2026-06-11T15:30:18.635328,15.27599507,.0001746,42.9935,143.4005,267.9258,92.1394,0,U,62429,999,8218,.94483E-3,.25845E-3,0
STARLINK-32702,2024-251A,2026-06-11T13:54:11.422368,15.30198579,.0001132,53.1596,256.3347,102.9458,257.1669,0,U,62432,999,8236,.87987E-3,.25789E-3,0
STARLINK-32712,2024-251B,2026-06-11T14:13:20.813664,15.30205944,.0001121,53.1607,259.2565,103.5993,256.5133,0,U,62433,999,8232,.51877E-3,.15039E-3,0
STARLINK-32674,2024-251C,2026-06-11T13:18:38.373984,15.30208993,.0001096,53.1577,259.0249,61.3747,298.7364,0,U,62434,999,8232,.89561E-3,.26267E-3,0
STARLINK-32711,2024-251D,2026-06-11T14:08:49.479648,15.30166364,.0001296,53.1598,259.2414,83.4272,276.6876,0,U,62435,999,8232,.1497E-2,.44195E-3,0
STARLINK-32697,2024-251E,2026-06-11T13:50:33.226080,15.30200378,.0001123,53.1585,259.1605,123.3050,236.8059,0,U,62436,999,8232,.59481E-3,.17299E-3,0
STARLINK-32693,2024-251F,2026-06-11T12:50:31.110720,15.30193293,.000121,53.1597,256.6996,66.9094,293.2034,0,U,62437,999,8235,.83239E-3,.2437E-3,0
STARLINK-32721,2024-251G,2026-06-11T13:39:55.124064,15.30205387,.0001207,53.1591,259.1110,93.9811,266.1328,0,U,62438,999,8226,.88472E-3,.25939E-3,0
STARLINK-32709,2024-251H,2026-06-11T12:47:46.726080,15.33559159,.0002021,53.1616,259.5956,103.5924,256.5303,0,U,62439,999,8231,.59762E-3,.19339E-3,0
STARLINK-32689,2024-251J,2026-06-11T13:12:34.262784,15.30193003,.0001407,53.1583,258.9938,48.0614,312.0506,0,U,62440,999,8232,.90336E-3,.26485E-3,0
STARLINK-32724,2024-251K,2026-06-11T13:42:57.453120,15.30201503,.0000805,53.1587,259.1285,94.9513,265.1579,0,U,62441,999,8216,.75348E-3,.22024E-3,0
STARLINK-32291,2024-251L,2026-06-11T13:55:06.905856,15.30192289,.0001331,53.1610,259.1752,91.1149,269.0004,0,U,62442,999,8201,.64869E-3,.18897E-3,0
STARLINK-32736,2024-251M,2026-06-11T14:05:45.153024,15.30194486,.0001412,53.1608,259.2231,94.6330,265.4832,0,U,62443,999,8216,.58761E-3,.17081E-3,0
STARLINK-32737,2024-251N,2026-06-11T13:34:35.996160,15.30194454,.0001048,53.1588,256.9583,100.0172,260.0947,0,U,62444,999,8235,.83548E-3,.24463E-3,0
STARLINK-32683,2024-251P,2026-06-11T20:00:01.999008,15.34404082,.000144,53.1592,258.0323,94.6052,205.5368,0,U,62445,999,585,-.96947E-4,-.3651E-4,0
STARLINK-32726,2024-251Q,2026-06-11T13:41:26.371104,15.30199995,.0001183,53.1589,259.1180,104.7716,255.3416,0,U,62446,999,8201,.74717E-3,.21835E-3,0
STARLINK-32719,2024-251S,2026-06-11T21:16:03.580320,15.31532401,.0002372,53.1583,258.0993,160.0478,200.0617,0,U,62448,999,8219,.19755E-1,.657172E-2,0
STARLINK-32723,2024-251T,2026-06-11T12:10:27.342624,15.30181221,.0001724,53.1585,259.4348,146.0887,214.0224,0,U,62449,999,8215,.19122E-2,.56676E-3,0
STARLINK-32722,2024-251U,2026-06-11T13:36:52.789824,15.30201091,.0001064,53.1585,259.0935,86.3276,273.7846,0,U,62450,999,8195,.7995E-3,.23395E-3,0
STARLINK-32720,2024-251V,2026-06-11T20:00:01.999008,15.34406779,.0001552,53.1601,258.1045,88.4841,176.7688,0,U,62451,999,590,-.97502E-4,-.367E-4,0
STARLINK-32656,2024-251W,2026-06-11T14:12:35.212608,15.34393145,.000109,53.1605,259.2505,90.9154,269.1974,0,U,62452,999,8216,.96922E-3,.32505E-3,0
STARLINK-32690,2024-251X,2026-06-11T13:32:18.434400,15.30213973,.0001305,53.1583,259.0765,64.0526,296.0609,0,U,62453,999,8194,.97982E-3,.28785E-3,0
STARLINK-11518 [DTC],2024-254A,2026-06-11T07:51:10.626048,15.70879931,.0001248,43.0008,18.9588,280.6887,79.3840,0,U,62462,999,8413,.12659E-2,.165537E-2,0
STARLINK-11455 [DTC],2024-254B,2026-06-11T12:33:30.121920,15.71167841,.0003889,42.9997,17.8511,302.4832,57.5660,0,U,62463,999,8415,.17071E-2,.227873E-2,0
STARLINK-11178 [DTC],2024-254D,2026-06-10T22:26:29.881248,15.70869314,.00022287,43.0005,21.1671,241.5310,118.5334,0,U,62465,999,8390,.10944401E-2,.142598E-2,0
STARLINK-11506 [DTC],2024-254E,2026-06-11T14:12:30.769920,15.71229199,.000242,42.9976,16.6094,254.9010,105.1590,0,U,62466,999,8401,.18704E-2,.251021E-2,0
STARLINK-11486 [DTC],2024-254F,2026-06-11T15:21:19.420704,15.70893520,.0002448,43.0006,16.9983,292.3225,67.7383,0,U,62467,999,8417,.10648E-2,.138809E-2,0
STARLINK-11511 [DTC],2024-254G,2026-06-11T14:50:44.003904,15.70883111,.0002721,43.0016,16.8224,259.8739,100.1821,0,U,62468,999,8417,.1087E-2,.141704E-2,0
STARLINK-11505 [DTC],2024-254H,2026-06-11T06:57:38.490048,15.70905134,.0004418,43.0000,18.6547,277.9127,82.1239,0,U,62469,999,8411,.11296E-2,.147549E-2,0
