STARLINK-32614          
1 62428U 24249V   26162.66065260  .00021380  00000+0  78363-3 0  9994
2 62428  42.9937 151.2969 0001823 273.6371  86.4272 15.27603943 82092
STARLINK-32418          
1 62429U 24249W   26162.64604902  .00025845  00000+0  94483-3 0  9996
2 62429  42.9935 143.4005 0001746 267.9258  92.1394 15.27599507 82188
STARLINK-32702          
1 62432U 24251A   26162.57929887  .00025789  00000+0  87987-3 0  9995
2 62432  53.1596 256.3347 0001132 102.9458 257.1669 15.30198579 82367
STARLINK-32712          
1 62433U 24251B   26162.59260201  .00015039  00000+0  51877-3 0  9992
2 62433  53.1607 259.2565 0001121 103.5993 256.5133 15.30205944 82324
STARLINK-32674          
1 62434U 24251C   26162.55461081  .00026267  00000+0  89561-3 0  9994
2 62434  53.1577 259.0249 0001096  61.3747 298.7364 15.30208993 82328
STARLINK-32711          
1 62435U 24251D   26162.58946157  .00044195  00000+0  14970-2 0  9991
2 62435  53.1598 259.2414 0001296  83.4272 276.6876 15.30166364 82326
STARLINK-32697          
1 62436U 24251E   26162.57677345  .00017299  00000+0  59481-3 0  9993
2 62436  53.1585 259.1605 0001123 123.3050 236.8059 15.30200378 82326
STARLINK-32693          
1 62437U 24251F   26162.53508230  .00024370  00000+0  83239-3 0  9992
2 62437  53.1597 256.6996 0001210  66.9094 293.2034 15.30193293 82352
STARLINK-32721          
1 62438U 24251G   26162.56938801  .00025939  00000+0  88472-3 0  9993
2 62438  53.1591 259.1110 0001207  93.9811 266.1328 15.30205387 82269
STARLINK-32709          
1 62439U 24251H   26162.53317970  .00019339  00000+0  59762-3 0  9996
2 62439  53.1616 259.5956 0002021 103.5924 256.5303 15.33559159 82312
STARLINK-32689          
1 62440U 24251J   26162.55039656  .00026485  00000+0  90336-3 0  9994
2 62440  53.1583 258.9938 0001407  48.0614 312.0506 15.30193003 82329
STARLINK-32724          
1 62441U 24251K   26162.57149830  .00022024  00000+0  75348-3 0  9994
2 62441  53.1587 259.1285 0000805  94.9513 265.1579 15.30201503 82166
STARLINK-32291          
1 62442U 24251L   26162.57994104  .00018897  00000+0  64869-3 0  9996
2 62442  53.1610 259.1752 0001331  91.1149 269.0004 15.30192289 82012
STARLINK-32736          
1 62443U 24251M   26162.58732816  .00017081  00000+0  58761-3 0  9996
2 62443  53.1608 259.2231 0001412  94.6330 265.4832 15.30194486 82169
STARLINK-32737          
1 62444U 24251N   26162.56569440  .00024463  00000+0  83548-3 0  9999
2 62444  53.1588 256.9583 0001048 100.0172 260.0947 15.30194454 82356
STARLINK-32683          
1 62445U 24251P   26162.83335647 -.00003651  00000+0 -96947-4 0  9996
2 62445  53.1592 258.0323 0001440  94.6052 205.5368 15.34404082  5854
STARLINK-32726          
1 62446U 24251Q   26162.57044411  .00021835  00000+0  74717-3 0  9996
2 62446  53.1589 259.1180 0001183 104.7716 255.3416 15.30199995 82018
STARLINK-32719          
1 62448U 24251S   26162.88615255  .00657172  00000+0  19755-1 0  9990
2 62448  53.1583 258.0993 0002372 160.0478 200.0617 15.31532401 82198
STARLINK-32723          
1 62449U 24251T   26162.50726091  .00056676  00000+0  19122-2 0  9992
2 62449  53.1585 259.4348 0001724 146.0887 214.0224 15.30181221 82152
STARLINK-32722          
1 62450U 24251U   26162.56727766  .00023395  00000+0  79950-3 0  9998
2 62450  53.1585 259.0935 0001064  86.3276 273.7846 15.30201091 81954
STARLINK-32720          
1 62451U 24251V   26162.83335647 -.00003670  00000+0 -97502-4 0  9992
2 62451  53.1601 258.1045 0001552  88.4841 176.7688 15.34406779  5900
STARLINK-32656          
1 62452U 24251W   26162.59207422  .00032505  00000+0  96922-3 0  9996
2 62452  53.1605 259.2505 0001090  90.9154 269.1974 15.34393145 82160
STARLINK-32690          
1 62453U 24251X   26162.56410225  .00028785  00000+0  97982-3 0  9993
2 62453  53.1583 259.0765 0001305  64.0526 296.0609 15.30213973 81941
STARLINK-11518 [DTC]    
1 62462U 24254A   26162.32720632  .00165537  00000+0  12659-2 0  9990
2 62462  43.0008  18.9588 0001248 280.6887  79.3840 15.70879931 84137
STARLINK-11455 [DTC]    
1 62463U 24254B   26162.52326530  .00227873  00000+0  17071-2 0  9997
2 62463  42.9997  17.8511 0003889 302.4832  57.5660 15.71167841 84154
STARLINK-11178 [DTC]    
1 62465U 24254D   26161.93506807  .00142598  00000+0  10944-2 0  9992
2 62465  43.0005  21.1671 0002228 241.5310 118.5334 15.70869314 83904
STARLINK-11506 [DTC]    
1 62466U 24254E   26162.59202280  .00251021  00000+0  18704-2 0  9998
2 62466  42.9976  16.6094 0002420 254.9010 105.1590 15.71229199 84018
STARLINK-11486 [DTC]    
1 62467U 24254F   26162.63980811  .00138809  00000+0  10648-2 0  9994
2 62467  43.0006  16.9983 0002448 292.3225  67.7383 15.70893520 84173
STARLINK-11511 [DTC]    
1 62468U 24254G   26162.61856486  .00141704  00000+0  10870-2 0  9998
2 62468  43.0016  16.8224 0002721 259.8739 100.1821 15.70883111 84178
STARLINK-11505 [DTC]    
1 62469U 24254H   26162.29002882  .00147549  00000+0  11296-2 0  9992
2 62469  43.0000  18.6547 0004418 277.9127  82.1239 15.70905134 84113
